CZ-6A DEB               
1 54301U 22151AU  22340.74223147  .00000645  00000+0  40492-3 0  9991
2 54301  98.9026 345.7709 0056707 345.8805  14.0776 14.07232087  2913
CZ-6A DEB               
1 54302U 22151AV  22340.82445422  .00002045  00000+0  50593-3 0  9992
2 54302  98.9625 347.8972 0141399 163.3631 197.2269 14.47338161  3024
CZ-6A DEB               
1 54303U 22151AW  22340.78643264  .00000040  00000+0  47862-4 0  9991
2 54303  98.8338 345.4376 0047438  21.3601 338.9535 14.08765706  2920
CZ-6A DEB               
1 54304U 22151AX  22340.71802191  .00001004  00000+0  60265-3 0  9993
2 54304  98.8349 345.3717 0046570   8.9424 351.2565 14.08634483  2918
CZ-6A DEB               
1 54305U 22151AY  22340.82602227  .00000243  00000+0  12588-3 0  9993
2 54305  98.8197 345.9475 0056379 114.7810 245.9248 14.22782777  2979
CZ-6A DEB               
1 54306U 22151AZ  22340.76721596  .00000194  00000+0  13415-3 0  9993
2 54306  98.8174 345.3553 0040967  11.9301 348.2830 14.09874716  2924
CZ-6A DEB               
1 54307U 22151BA  22340.64998978  .00004796  00000+0  16023-2 0  9990
2 54307  98.6171 344.8878 0131214 241.1162 117.6804 14.33152535  2959
CZ-6A DEB               
1 54308U 22151BB  22340.70904137  .00004722  00000+0  15764-2 0  9992
2 54308  98.6972 345.4876 0122761 237.1777 121.7537 14.33779162  2969
CZ-6A DEB               
1 54309U 22151BC  22340.82848648  .00000288  00000+0  18527-3 0  9994
2 54309  98.8169 345.4355 0037994  10.3590 349.8356 14.10432255  2932
CZ-6A DEB               
1 54310U 22151BD  22339.96416654  .00008892  00000+0  25251-2 0  9997
2 54310  98.6114 344.4675 0127943 219.8855 139.2879 14.40925687  2895
CZ-6A DEB               
1 54311U 22151BE  22340.86405270  .00004076  00000+0  12677-2 0  9999
2 54311  98.6970 345.7722 0127966 229.2470 129.7552 14.36944242  2992
CZ-6A DEB               
1 54312U 22151BF  22340.73273089  .00001723  00000+0  82836-3 0  9998
2 54312  98.9682 346.6990 0024208 257.8225 102.0239 14.20060259  2955
CZ-6A DEB               
1 54313U 22151BG  22340.71150969  .00006356  00000+0  19424-2 0  9997
2 54313  98.6937 345.6281 0125072 226.2485 132.8296 14.37760725  2976
CZ-6A DEB               
1 54314U 22151BH  22340.55015015  .00007513  00000+0  19501-2 0  9994
2 54314  98.6177 345.1915 0152838 223.0865 135.8279 14.43231201  2961
CZ-6A DEB               
1 54315U 22151BJ  22340.63311541  .00000149  00000+0  10917-3 0  9998
2 54315  98.8325 345.3039 0045097  24.8082 335.5243 14.09420289  2906
CZ-6A DEB               
1 54316U 22151BK  22340.84385129  .00000407  00000+0  25544-3 0  9994
2 54316  98.7967 345.2869 0042203   8.3651 351.8214 14.09556182  2948
CZ-6A DEB               
1 54317U 22151BL  22340.57813953  .00006961  00000+0  13244-2 0  9990
2 54317  98.7103 346.2595 0186011 209.0264 150.0489 14.53907864  2998
CZ-6A DEB               
1 54318U 22151BM  22340.74702247  .00000951  00000+0  58773-3 0  9993
2 54318  98.8156 345.2107 0055206  15.4484 344.8355 14.06967123  2919
CZ-6A DEB               
1 54319U 22151BN  22340.75032155  .00012796  00000+0  29428-2 0  9993
2 54319  98.6593 345.6919 0201223 235.5039 122.7003 14.43832848  3001
CZ-6A DEB               
1 54320U 22151BP  22340.73711038  .00000376  00000+0  30826-3 0  9993
2 54320  98.8418 344.7524 0136362 348.0517  11.7419 13.91184816  2896
CZ-6A DEB               
1 54321U 22151BQ  22340.79864865  .00001050  00000+0  34021-3 0  9998
2 54321  98.6878 345.6320 0127857 229.6790 129.3169 14.36618221  2985
CZ-6A DEB               
1 54322U 22151BR  22340.57642422  .00006132  00000+0  13698-2 0  9990
2 54322  98.7322 346.0731 0197705 231.2300 127.1084 14.45757106  2985
CZ-6A DEB               
1 54323U 22151BS  22340.82377150  .00000522  00000+0  33576-3 0  9997
2 54323  98.8076 345.2242 0055866   0.5054 359.6162 14.06636852  2941
CZ-6A DEB               
1 54324U 22151BT  22340.76963350  .00059957  00000+0  16819-2 0  9990
2 54324  98.6584 347.7368 0349252 196.4268 162.5400 14.92788359  3107
CZ-6A DEB               
1 54325U 22151BU  22340.73294808  .00000316  00000+0  19577-3 0  9993
2 54325  98.7844 345.1902 0034091  29.0582 331.2478 14.11848539  2934
CZ-6A DEB               
1 54326U 22151BV  22339.98289165  .00046812  00000+0  45593-2 0  9996
2 54326  99.0838 348.5592 0287829 225.4616 132.2751 14.66068288  2931
CZ-6A DEB               
1 54327U 22151BW  22340.73008559  .00000713  00000+0  43979-3 0  9995
2 54327  98.7881 345.0601 0050827  17.2127 343.0752 14.07934394  2915
CZ-6A DEB               
1 54328U 22151BX  22340.70712519  .00004789  00000+0  11732-2 0  9999
2 54328  98.7279 346.1919 0151981 213.0268 146.1361 14.46168967  2990
CZ-6A DEB               
1 54329U 22151BY  22340.66212583  .00002825  00000+0  63504-3 0  9995
2 54329  98.7354 346.3024 0169721 147.3016 213.8820 14.48783940  2993
CZ-6A DEB               
1 54330U 22151BZ  22340.70610379  .00001704  00000+0  84417-3 0  9998
2 54330  98.8023 345.5054 0063169  90.1447 270.6966 14.17519691  2937
CZ-6A DEB               
1 54331U 22151CA  22339.99651115  .00000516  00000+0  40546-3 0  9996
2 54331  98.7980 343.8199 0126407  22.8738 337.7986 13.92443473  2786
CZ-6A DEB               
1 54332U 22151CB  22340.65033966  .00001325  00000+0  67944-3 0  9990
2 54332  98.8000 345.4005 0043357  82.9161 277.6941 14.16650479  2937
CZ-6A DEB               
1 54333U 22151CC  22340.66924123  .00004726  00000+0  13475-2 0  9993
2 54333  98.7061 345.7683 0138656 224.8379 134.1539 14.40215238  3000
CZ-6A DEB               
1 54334U 22151CD  22340.74859455  .00004787  00000+0  13864-2 0  9997
2 54334  98.7077 345.8351 0136455 225.2808 133.7205 14.39637289  3016
CZ-6A DEB               
1 54335U 22151CE  22340.85145192  .00000562  00000+0  34453-3 0  9991
2 54335  98.7957 345.2719 0051293  35.8671 324.5925 14.09123660  2967
CZ-6A DEB               
1 54336U 22151CF  22340.76324193  .00000331  00000+0  22407-3 0  9992
2 54336  98.8073 345.1387 0061425  23.2186 337.1736 14.06027203  2950
CZ-6A DEB               
1 54337U 22151CG  22340.23894731  .00000443  00000+0  28499-3 0  9996
2 54337  98.8207 344.7709 0052025  15.5435 344.7317 14.07556441  2883
CZ-6A DEB               
1 54338U 22151CH  22340.77346550  .00000890  00000+0  52928-3 0  9997
2 54338  98.8301 345.4343 0043009  14.9628 345.2804 14.09530574  2967
CZ-6A DEB               
1 54339U 22151CJ  22340.77314486  .00000206  00000+0  14150-3 0  9997
2 54339  98.8073 345.2853 0043995  22.2855 338.0215 14.09534610  2967
CZ-6A DEB               
1 54340U 22151CK  22340.83507025  .00002739  00000+0  60573-3 0  9992
2 54340  98.7102 346.3961 0156384 195.4604 164.1783 14.50807418  3037
CZ-6A DEB               
1 54341U 22151CL  22340.84190131  .00000893  00000+0  45316-3 0  9997
2 54341  98.8050 345.6683 0051580  90.6736 270.0350 14.17812133  2969
CZ-6A DEB               
1 54342U 22151CM  22340.73187472  .00000308  00000+0  20420-3 0  9990
2 54342  98.7991 345.1257 0053019  24.6139 335.7544 14.07822072  2920
CZ-6A DEB               
1 54343U 22151CN  22340.84174701  .00000069  00000+0  63411-4 0  9996
2 54343  98.8135 345.3969 0042695  19.1256 341.1506 14.09668173  2944
CZ-6A DEB               
1 54344U 22151CP  22340.53874540  .00000051  00000+0  55672-4 0  9992
2 54344  98.8219 345.0362 0057210  20.4234 339.9204 14.06654802  2897
CZ-6A DEB               
1 54345U 22151CQ  22340.71678885  .00003390  00000+0  15344-2 0  9996
2 54345  98.7046 345.0326 0078392 265.4902  93.7317 14.21027771  2955
CZ-6A DEB               
1 54346U 22151CR  22340.74405637  .00003692  00000+0  86642-3 0  9998
2 54346  98.6500 345.7972 0154523 207.4375 151.8597 14.48056155  3016
CZ-6A DEB               
1 54347U 22151CS  22340.26015515  .00000370  00000+0  16021-3 0  9992
2 54347  98.7130 344.8753 0107172 251.6361 107.3140 14.27149014  2909
CZ-6A DEB               
1 54348U 22151CT  22340.75676931  .00000802  00000+0  30326-3 0  9996
2 54348  98.6941 345.3994 0107512 239.3145 119.7408 14.30901153  2989
CZ-6A DEB               
1 54349U 22151CU  22340.78553657  .00000559  00000+0  24111-3 0  9993
2 54349  98.7105 345.3044 0112621 256.5210 102.3399 14.25140698  2979
CZ-6A DEB               
1 54350U 22151CV  22340.58298352  .00000277  00000+0  11493-3 0  9997
2 54350  98.8157 346.0847 0069778 168.5540 191.7250 14.32880638  2960
CZ-6A DEB               
1 54351U 22151CW  22340.46648073  .00009396  00000+0  59495-2 0  9998
2 54351  99.0190 345.8351 0203377 310.8140  47.5537 13.94526593  2859
CZ-6A DEB               
1 54352U 22151CX  22340.51452209  .00004890  00000+0  12032-2 0  9999
2 54352  99.1007 348.2246 0202073 241.0037 117.0764 14.41147390  2975
CZ-6A DEB               
1 54353U 22151CY  22340.70599010  .00004364  00000+0  13250-2 0  9992
2 54353  99.1395 348.3739 0178577 249.1090 109.0895 14.33937342  2985
CZ-6A DEB               
1 54354U 22151CZ  22340.80164598  .00004415  00000+0  12361-2 0  9992
2 54354  98.8126 346.4535 0190341 245.1486 112.9803 14.36526211  3003
CZ-6A DEB               
1 54355U 22151DA  22340.85686870  .00171510  00000+0  80067-2 0  9999
2 54355  98.7980 348.5331 0284738 192.0051 167.4282 14.90046768  3112
CZ-6A DEB               
1 54356U 22151DB  22340.68184944  .00002561  00000+0  11190-2 0  9996
2 54356  98.9588 346.7133 0080387 258.9906 100.2221 14.23033239  2958
CZ-6A DEB               
1 54357U 22151DC  22340.80716876  .00244402  00000+0  75410-2 0  9993
2 54357  99.1624 351.2650 0300051 196.5906 162.5330 14.98963907  3126
CZ-6A DEB               
1 54358U 22151DD  22340.50420140  .00003784  00000+0  84090-3 0  9998
2 54358  98.5502 344.9836 0159820 204.0423 155.3251 14.49998392  2993
CZ-6A DEB               
1 54359U 22151DE  22340.73724135  .00006405  00000+0  15600-2 0  9998
2 54359  99.0778 348.2779 0212253 243.1963 114.7375 14.40341699  2989
